{
  "norad_id": 49438,
  "name": "STARLINK-3044",
  "history": [
    {
      "epoch": "2026-03-28T19:53:16.298304",
      "apogee_km": 540.5974697840265,
      "perigee_km": 538.9247220244379,
      "latitude_deg": -52.378306751383654,
      "longitude_deg": -76.64855743991211,
      "semi_major_axis_km": 6917.898095904232,
      "eccentricity": 0.0001209,
      "inclination_deg": 53.2161,
      "raan_deg": 123.1383,
      "arg_perigee_deg": 82.7272,
      "mean_anomaly_deg": 277.3858,
      "mean_motion_rev_day": 15.08834207
    }
  ]
}