{"fetched_at":"2026-03-29T16:36:15Z","count":15609,"tles":[{"name":"STARLINK-3044","line1":"1 49438U 21104AG  26087.82866086 -.00000743  00000+0 -28585-4 0  9990","line2":"2 49438  53.2161 123.1383 0001209  82.7272 277.3858 15.08834207241802","category":"Starlink"}]}